[{"OBJECT_NAME":"OBJECT A","OBJECT_ID":"2024-205A","EPOCH":"2026-03-09T23:47:25.060128","MEAN_MOTION":15.10420635,"ECCENTRICITY":0.00183963,"INCLINATION":97.4208,"RA_OF_ASC_NODE":142.0688,"ARG_OF_PERICENTER":137.3438,"MEAN_ANOMALY":222.9224,"EPHEMERIS_TYPE":0,"CLASSIFICATION_TYPE":"U","NORAD_CAT_ID":61894,"ELEMENT_SET_NO":999,"REV_AT_EPOCH":7322,"BSTAR":0.00061451018,"MEAN_MOTION_DOT":0.00010084,"MEAN_MOTION_DDOT":0},{"OBJECT_NAME":"STARLINK-34802","OBJECT_ID":"2025-165M","EPOCH":"2026-03-09T17:13:32.863008","MEAN_MOTION":15.05652759,"ECCENTRICITY":6.401e-5,"INCLINATION":97.6015,"RA_OF_ASC_NODE":147.2402,"ARG_OF_PERICENTER":228.9415,"MEAN_ANOMALY":131.1756,"EPHEMERIS_TYPE":0,"CLASSIFICATION_TYPE":"U","NORAD_CAT_ID":65067,"ELEMENT_SET_NO":999,"REV_AT_EPOCH":3479,"BSTAR":0.00028862988,"MEAN_MOTION_DOT":4.107e-5,"MEAN_MOTION_DDOT":0}]
